LEMUR-2-LANGER2SPACE    
1 63358U 25061H   26115.47550780  .00004170  00000+0  23322-3 0  9996
2 63358  97.5587  91.5492 0018747  80.9041 279.4311 15.13877399 59641
LEMUR-2-BALTO           
1 63395U 25052BH  26115.68029904  .00004665  00000+0  38441-3 0  9996
2 63395  97.6942   9.9330 0001174 177.7708 182.3521 14.99536517 60894
LEMUR-2-KRISH           
1 64561U 25135AK  26115.83440898  .00005709  00000+0  51783-3 0  9994
2 64561  97.7669 231.1144 0001090 103.5387 256.5955 14.95704593 46094
LEMUR-2-HUBBLE-4        
1 64565U 25135AP  26115.26668183  .00001779  00000+0  17641-3 0  9992
2 64565  97.7634 229.8293 0003996 103.7056 256.4609 14.93044791 45977
LEMUR-2-SEJONG-2        
1 64586U 25135BL  26115.81555631  .00004751  00000+0  42593-3 0  9996
2 64586  97.7624 231.2346 0005806 130.5679 229.6048 14.96243148 46112
LEMUR-2-HUBBLE-5        
1 64840U 25135BT  26115.78417525  .00001556  00000+0  15145-3 0  9997
2 64840  97.7651 230.8992 0006556 142.9361 217.2312 14.93968245 46087
LEMUR-2-KARENDARRELL    
1 64841U 25135BU  26115.80963601  .00010383  00000+0  85210-3 0  9990
2 64841  97.7666 232.1362 0009342  51.0731 309.1324 14.99369601 46167
LEMUR-2-LUCILLE-ROSE    
1 65403U 25135BV  26115.85132972  .00009853  00000+0  80877-3 0  9993
2 65403  97.7644 232.1668 0010918  99.2233 261.0225 14.99365883 40796
LEMUR-2-AFFIE-WAUWIE    
1 66295U 25248C   26115.82640834  .00020793  00000+0  81812-3 0  9992
2 66295  45.3993  38.2974 0008765 148.5563 211.5851 15.25353439 26599
LEMUR-2-DEANANDMAEVE    
1 66678U 25276N   26115.75996617  .00007258  00000+0  34934-3 0  9997
2 66678  97.4227 190.1285 0006300 168.4140 191.7241 15.19047941 22454
LEMUR-2-STAS-GORBUK     
1 66686U 25276W   26115.76401273  .00005826  00000+0  28317-3 0  9993
2 66686  97.4264 190.1877 0005884 162.7087 197.4348 15.18793512 22456
LEMUR-2-TEODOR          
1 66768U 25276DG  26115.73940890  .00005925  00000+0  27453-3 0  9994
2 66768  97.4167 190.3346 0001341  73.3468 286.7914 15.20461302 22471
LEMUR-2-LAILA           
1 66776U 25276DQ  26115.72080223  .00005634  00000+0  25958-3 0  9992
2 66776  97.4189 190.4033 0001916  60.2029 299.9397 15.20674378 22474
LEMUR-2-CELIJO-SB-PK    
1 66781U 25276DW  26115.72385022  .00005662  00000+0  46794-3 0  9995
2 66781  97.5247 188.2433 0008750 310.1692  49.8765 14.99292759 14769
LEMUR-2-FINNIAN         
1 66782U 25276DX  26115.71565132  .00005313  00000+0  43450-3 0  9996
2 66782  97.5269 188.4210 0005210 290.3769  69.6895 14.99748444 12131
LEMUR-2-STARLIGHT       
1 66783U 25276DY  26115.76075882  .00005821  00000+0  49005-3 0  9996
2 66783  97.5289 188.2048 0012831 313.9946  46.0218 14.98533048 22340
